METEOSAT-7              
1 24932U 97049B   16220.06856089  .00000034  00000-0  00000+0 0  9998
2 24932  10.2657  40.1567 0000434 221.2870 137.0328  1.00269630 69308
NOAA 15                 
1 25338U 98030A   16219.54085150  .00000019  00000-0  26947-4 0  9990
2 25338  98.7837 223.7933 0011444  44.8076 315.4026 14.25745376948160
METEOSAT-8 (MSG-1)      
1 27509U 02040B   16219.25562332  .00000103  00000-0  00000+0 0  9999
2 27509   4.2884  59.5540 0000876 147.6553 218.3354  1.00401569 51133
KALPANA-1 (METSAT 1)    
1 27525U 02043A   16219.07899225 -.00000104  00000-0  00000+0 0  9996
2 27525   5.8164  57.3612 0012440 216.8975 143.1610  1.00272757 50923
INSAT-3A                
1 27714U 03013A   16219.02485561 -.00000280  00000-0  00000+0 0  9998
2 27714   0.0999 269.6465 0006238 190.1186 317.6731  1.00271533 48836
NOAA 18                 
1 28654U 05018A   16219.50484017  .00000008  00000-0  30068-4 0  9996
2 28654  99.1975 227.7448 0013455 231.5024 128.4940 14.12297588577831
METEOSAT-9 (MSG-2)      
1 28912U 05049B   16219.22137238  .00000041  00000-0  00000+0 0  9991
2 28912   1.5915  68.8291 0000234 292.1643  43.1373  1.00275112 38950
MTSAT-2                 
1 28937U 06004A   16219.86162897 -.00000262  00000-0  00000+0 0  9995
2 28937   0.0066  12.1294 0003785 113.6721 285.2021  1.00272511 38242
FORMOSAT-3 FM6          
1 29047U 06011A   16220.12815572  .00000099  00000-0  55530-4 0  9992
2 29047  71.9798 107.9743 0051259 332.4843  27.3580 14.28523501539918
FORMOSAT-3 FM1          
1 29048U 06011B   16218.92600735 -.00000020  00000-0  88431-5 0  9993
2 29048  71.9680  22.9150 0045522 290.5366 187.7162 14.28460907542222
FORMOSAT-3 FM5          
1 29049U 06011C   16219.31820198  .00000018  00000-0  23647-4 0  9998
2 29049  72.0192 185.7909 0036203 327.2683  32.6210 14.28490714538067
FORMOSAT-3 FM3          
1 29050U 06011D   16220.14684890  .00000191  00000-0  50953-4 0  9992
2 29050  72.0165 113.6709 0050131   5.2309 354.9356 14.58338864550785
FORMOSAT-3 FM4          
1 29051U 06011E   16219.83474045  .00000102  00000-0  55803-4 0  9997
2 29051  72.0058  89.3679 0069043 205.0174 154.7613 14.28511980540728
FORMOSAT-3 FM2          
1 29052U 06011F   16219.29794155  .00000042  00000-0  32926-4 0  9999
2 29052  72.0347 160.4885 0042039 292.1670  67.5008 14.28600807538963
GOES 13                 
1 29155U 06018A   16219.29153196 -.00000271  00000-0  00000+0 0  9992
2 29155   0.0791 261.9704 0003307 192.0050 251.3433  1.00279460 37392
METOP-A                 
1 29499U 06044A   16219.15782869  .00000008  00000-0  23746-4 0  9996
2 29499  98.6917 277.3755 0001608  47.1697 337.6620 14.21499788508384
FENGYUN 2D              
1 29640U 06053A   16219.72583471 -.00000380  00000-0  10000-3 0  9997
2 29640   3.8706  66.0142 0002021 242.5225  32.0306  1.00275492 35443
FENGYUN 3A              
1 32958U 08026A   16220.15491788  .00000010  00000-0  24043-4 0  9995
2 32958  98.4482 257.8921 0010616 108.5630 251.6708 14.19626319424781
FENGYUN 2E              
1 33463U 08066A   16219.90693392 -.00000218  00000-0  00000+0 0  9990
2 33463   1.5957  63.3799 0003851 197.2298 108.1423  1.00273430 27974
NOAA 19                 
1 33591U 09005A   16219.46650317  .00000091  00000-0  74323-4 0  9999
2 33591  99.0441 176.6629 0015122  78.1508 282.1358 14.12094576386237
GOES 14                 
1 35491U 09033A   16218.41747382 -.00000114  00000-0  00000+0 0  9997
2 35491   0.3361  96.5951 0005235 106.0001 157.3638  1.00272294 26036
METEOR-M 1              
1 35865U 09049A   16220.09580373 -.00000007  00000-0  15888-4 0  9997
2 35865  98.4528 249.3210 0002338  14.7141 345.4105 14.22074998357452
GOES 15                 
1 36411U 10008A   16219.49782285  .00000065  00000-0  00000+0 0  9998
2 36411   0.2730  97.5444 0000534 117.1519 145.2843  1.00285602 23577
COMS 1                  
1 36744U 10032A   16219.36368948 -.00000365  00000-0  00000+0 0  9990
2 36744   0.0252  88.4316 0000530  61.8710  64.1099  1.00273368 22537
FENGYUN 3B              
1 37214U 10059A   16220.12815485 -.00000015  00000-0  14745-4 0  9999
2 37214  98.8467 174.3395 0016568 317.0454  42.9432 14.15820505298108
ELEKTRO-L 1 (GOMS 2)    
1 37344U 11001A   16220.20876200  .00000054  00000-0  00000+0 0  9998
2 37344   1.8023  79.1697 0034116  81.1774 256.6641  0.99714494 20356
SUOMI NPP               
1 37849U 11061A   16219.17074017  .00000036  00000-0  37958-4 0  9991
2 37849  98.7227 156.5862 0001177  50.1621  62.1527 14.19557748247391
FENGYUN 2F              
1 38049U 12002A   16219.81073439 -.00000375  00000-0  00000+0 0  9998
2 38049   1.0807  76.2662 0003274 180.3770 102.7712  1.00261247 16777
METEOSAT-10 (MSG-3)     
1 38552U 12035B   16219.12475958 -.00000026  00000-0  00000+0 0  9992
2 38552   0.5110  13.3287 0001658 193.2201 153.4267  1.00272197 15108
METOP-B                 
1 38771U 12049A   16219.49426919  .00000010  00000-0  24570-4 0  9998
2 38771  98.7256 278.1422 0002205  82.0451  32.5446 14.21477601201561
FENGYUN 3C              
1 39260U 13052A   16220.20161337 -.00000014  00000-0  13690-4 0  9994
2 39260  98.6880 290.5069 0001159 105.7432 254.3875 14.19621829148831
METEOR-M 2              
1 40069U 14037A   16220.18291189 -.00000008  00000-0  16327-4 0  9996
2 40069  98.7023 274.6402 0006525  46.6459 313.5269 14.20633026107977
HIMAWARI 8              
1 40267U 14060A   16218.73511700 -.00000298  00000-0  00000+0 0  9991
2 40267   0.0091  98.1569 0001299  43.0188 218.8159  1.00273740  6749
FENGYUN 2G              
1 40367U 14090A   16219.43442774 -.00000347  00000-0  00000+0 0  9992
2 40367   1.0859 270.7044 0004037 315.0353 350.3061  1.00260467  5923
METEOSAT-11 (MSG-4)     
1 40732U 15034A   16218.84264270 -.00000048  00000-0  00000+0 0  9992
2 40732   2.4155 254.9863 0000552  27.6248 332.2765  1.00277921  3924
ELEKTRO-L 2             
1 41105U 15074A   16219.56964861 -.00000134  00000-0  00000+0 0  9990
2 41105   0.0173 343.8153 0002124 151.0330 103.4841  1.00270043  2407
